[{"OBJECT_NAME":"STARLINK-30759","OBJECT_ID":"2023-162E","EPOCH":"2026-03-09T22:00:01.999584","MEAN_MOTION":15.26747444,"ECCENTRICITY":0.00010361,"INCLINATION":42.9999,"RA_OF_ASC_NODE":130.6686,"ARG_OF_PERICENTER":256.3541,"MEAN_ANOMALY":266.1545,"EPHEMERIS_TYPE":0,"CLASSIFICATION_TYPE":"U","NORAD_CAT_ID":58122,"ELEMENT_SET_NO":999,"REV_AT_EPOCH":578,"BSTAR":-0.00049685322,"MEAN_MOTION_DOT":-0.00013565,"MEAN_MOTION_DDOT":0},{"OBJECT_NAME":"FLOCK 4G-17","OBJECT_ID":"2025-009CA","EPOCH":"2026-03-09T22:51:51.984864","MEAN_MOTION":15.27385439,"ECCENTRICITY":0.00036407,"INCLINATION":97.3966,"RA_OF_ASC_NODE":151.0229,"ARG_OF_PERICENTER":339.6132,"MEAN_ANOMALY":20.4962,"EPHEMERIS_TYPE":0,"CLASSIFICATION_TYPE":"U","NORAD_CAT_ID":62681,"ELEMENT_SET_NO":999,"REV_AT_EPOCH":12139,"BSTAR":0.00053710713,"MEAN_MOTION_DOT":0.00014342,"MEAN_MOTION_DDOT":0}]
